{
  "type": "FeatureCollection",
  "features": [
    {
      "type": "Feature",
      "properties": {
        "norad_id": 41581,
        "name": "INTELSAT 31 (IS-31)",
        "group": "intelsat",
        "lat": 0.02061407832288855,
        "lon": -29.422404534373076,
        "alt_km": 35789.338612971726,
        "timestamp": "2025-12-02T23:34:15.181534+00:00",
        "meta_object_name": "INTELSAT 31 (IS-31)",
        "meta_object_id": "2016-035A",
        "meta_epoch": "2025-12-02T09:32:38.891040",
        "meta_mean_motion": 1.00269687,
        "meta_eccentricity": 0.0001905,
        "meta_inclination": 0.0144,
        "meta_ra_of_asc_node": 272.373,
        "meta_arg_of_pericenter": 308.7593,
        "meta_mean_anomaly": 258.4788,
        "meta_ephemeris_type": 0,
        "meta_classification_type": "U",
        "meta_norad_cat_id": 41581,
        "meta_element_set_no": 999,
        "meta_rev_at_epoch": 3471,
        "meta_bstar": 0,
        "meta_mean_motion_dot": -1.3e-06,
        "meta_mean_motion_ddot": 0,
        "tle_line1": "1 41581U 16035A   25336.39767235 -.00000130  00000+0  00000+0 0  9998",
        "tle_line2": "2 41581   0.0144 272.3730 0001905 308.7593 258.4788  1.00269687 34710"
      },
      "geometry": {
        "type": "Point",
        "coordinates": [
          -29.422404534373076,
          0.02061407832288855
        ]
      }
    },
    {
      "type": "Feature",
      "properties": {
        "norad_id": 41747,
        "name": "INTELSAT 36 (IS-36)",
        "group": "intelsat",
        "lat": 0.009502989269513052,
        "lon": 134.1160144850769,
        "alt_km": 35792.027919526154,
        "timestamp": "2025-12-02T23:34:15.181545+00:00",
        "meta_object_name": "INTELSAT 36 (IS-36)",
        "meta_object_id": "2016-053A",
        "meta_epoch": "2025-12-02T02:07:30.066816",
        "meta_mean_motion": 1.00267364,
        "meta_eccentricity": 0.0001138,
        "meta_inclination": 0.0112,
        "meta_ra_of_asc_node": 345.1762,
        "meta_arg_of_pericenter": 336.3829,
        "meta_mean_anomaly": 210.0274,
        "meta_ephemeris_type": 0,
        "meta_classification_type": "U",
        "meta_norad_cat_id": 41747,
        "meta_element_set_no": 999,
        "meta_rev_at_epoch": 3397,
        "meta_bstar": 0,
        "meta_mean_motion_dot": -3e-08,
        "meta_mean_motion_ddot": 0,
        "tle_line1": "1 41747U 16053A   25336.08854244 -.00000003  00000+0  00000+0 0  9994",
        "tle_line2": "2 41747   0.0112 345.1762 0001138 336.3829 210.0274  1.00267364 33971"
      },
      "geometry": {
        "type": "Point",
        "coordinates": [
          134.1160144850769,
          0.009502989269513052
        ]
      }
    },
    {
      "type": "Feature",
      "properties": {
        "norad_id": 41945,
        "name": "INTELSAT 32E (IS-32E)",
        "group": "intelsat",
        "lat": 0.008802721420469867,
        "lon": 22.447725526486096,
        "alt_km": 35786.23267781197,
        "timestamp": "2025-12-02T23:34:15.181556+00:00",
        "meta_object_name": "INTELSAT 32E (IS-32E)",
        "meta_object_id": "2017-007B",
        "meta_epoch": "2025-12-02T08:26:33.227808",
        "meta_mean_motion": 1.00270094,
        "meta_eccentricity": 1.01e-05,
        "meta_inclination": 0.0231,
        "meta_ra_of_asc_node": 56.1777,
        "meta_arg_of_pericenter": 302.4246,
        "meta_mean_anomaly": 156.3298,
        "meta_ephemeris_type": 0,
        "meta_classification_type": "U",
        "meta_norad_cat_id": 41945,
        "meta_element_set_no": 999,
        "meta_rev_at_epoch": 3225,
        "meta_bstar": 0,
        "meta_mean_motion_dot": -2.48e-06,
        "meta_mean_motion_ddot": 0,
        "tle_line1": "1 41945U 17007B   25336.35177347 -.00000248  00000+0  00000+0 0  9997",
        "tle_line2": "2 41945   0.0231  56.1777 0000101 302.4246 156.3298  1.00270094 32256"
      },
      "geometry": {
        "type": "Point",
        "coordinates": [
          22.447725526486096,
          0.008802721420469867
        ]
      }
    },
    {
      "type": "Feature",
      "properties": {
        "norad_id": 42818,
        "name": "INTELSAT 35E (IS-35E)",
        "group": "intelsat",
        "lat": 0.03991329518056279,
        "lon": 31.155738517143828,
        "alt_km": 35793.52736775602,
        "timestamp": "2025-12-02T23:34:15.181567+00:00",
        "meta_object_name": "INTELSAT 35E (IS-35E)",
        "meta_object_id": "2017-041A",
        "meta_epoch": "2025-12-02T08:29:02.990112",
        "meta_mean_motion": 1.00271375,
        "meta_eccentricity": 0.0002292,
        "meta_inclination": 0.0169,
        "meta_ra_of_asc_node": 315.4787,
        "meta_arg_of_pericenter": 297.1604,
        "meta_mean_anomaly": 271.6069,
        "meta_ephemeris_type": 0,
        "meta_classification_type": "U",
        "meta_norad_cat_id": 42818,
        "meta_element_set_no": 999,
        "meta_rev_at_epoch": 3084,
        "meta_bstar": 0,
        "meta_mean_motion_dot": -2.17e-06,
        "meta_mean_motion_ddot": 0,
        "tle_line1": "1 42818U 17041A   25336.35350683 -.00000217  00000+0  00000+0 0  9997",
        "tle_line2": "2 42818   0.0169 315.4787 0002292 297.1604 271.6069  1.00271375 30842"
      },
      "geometry": {
        "type": "Point",
        "coordinates": [
          31.155738517143828,
          0.03991329518056279
        ]
      }
    },
    {
      "type": "Feature",
      "properties": {
        "norad_id": 42950,
        "name": "INTELSAT 37E (IS-37E)",
        "group": "intelsat",
        "lat": 0.03233492375036649,
        "lon": 47.634808216552784,
        "alt_km": 35800.04292376487,
        "timestamp": "2025-12-02T23:34:15.181579+00:00",
        "meta_object_name": "INTELSAT 37E (IS-37E)",
        "meta_object_id": "2017-059A",
        "meta_epoch": "2025-12-02T06:51:04.874112",
        "meta_mean_motion": 1.00270981,
        "meta_eccentricity": 0.0003393,
        "meta_inclination": 0.0119,
        "meta_ra_of_asc_node": 291.7502,
        "meta_arg_of_pericenter": 313.3264,
        "meta_mean_anomaly": 271.0959,
        "meta_ephemeris_type": 0,
        "meta_classification_type": "U",
        "meta_norad_cat_id": 42950,
        "meta_element_set_no": 999,
        "meta_rev_at_epoch": 3009,
        "meta_bstar": 0,
        "meta_mean_motion_dot": -1.2e-06,
        "meta_mean_motion_ddot": 0,
        "tle_line1": "1 42950U 17059A   25336.28547308 -.00000120  00000+0  00000+0 0  9990",
        "tle_line2": "2 42950   0.0119 291.7502 0003393 313.3264 271.0959  1.00270981 30092"
      },
      "geometry": {
        "type": "Point",
        "coordinates": [
          47.634808216552784,
          0.03233492375036649
        ]
      }
    },
    {
      "type": "Feature",
      "properties": {
        "norad_id": 43632,
        "name": "AZERSPACE 2 (IS-38)",
        "group": "intelsat",
        "lat": 0.014871569451940698,
        "lon": 110.71522809892953,
        "alt_km": 35791.873423622674,
        "timestamp": "2025-12-02T23:34:15.181590+00:00",
        "meta_object_name": "AZERSPACE 2 (IS-38)",
        "meta_object_id": "2018-074A",
        "meta_epoch": "2025-12-02T03:43:33.564576",
        "meta_mean_motion": 1.00270954,
        "meta_eccentricity": 0.00016795,
        "meta_inclination": 0.003,
        "meta_ra_of_asc_node": 345.5003,
        "meta_arg_of_pericenter": 267.9964,
        "meta_mean_anomaly": 278.7706,
        "meta_ephemeris_type": 0,
        "meta_classification_type": "U",
        "meta_norad_cat_id": 43632,
        "meta_element_set_no": 999,
        "meta_rev_at_epoch": 2647,
        "meta_bstar": 0,
        "meta_mean_motion_dot": 1.57e-06,
        "meta_mean_motion_ddot": 0,
        "tle_line1": "1 43632U 18074A   25336.15524959  .00000157  00000+0  00000+0 0  9998",
        "tle_line2": "2 43632   0.0030 345.5003 0001679 267.9964 278.7706  1.00270954 26473"
      },
      "geometry": {
        "type": "Point",
        "coordinates": [
          110.71522809892953,
          0.014871569451940698
        ]
      }
    },
    {
      "type": "Feature",
      "properties": {
        "norad_id": 43633,
        "name": "HORIZONS-3E",
        "group": "intelsat",
        "lat": -0.011492306447055654,
        "lon": -125.37130956854287,
        "alt_km": 35784.315327593074,
        "timestamp": "2025-12-02T23:34:15.181602+00:00",
        "meta_object_name": "HORIZONS-3E",
        "meta_object_id": "2018-074B",
        "meta_epoch": "2025-12-02T09:32:38.561856",
        "meta_mean_motion": 1.00268601,
        "meta_eccentricity": 0.0001081,
        "meta_inclination": 0.0303,
        "meta_ra_of_asc_node": 208.778,
        "meta_arg_of_pericenter": 80.6678,
        "meta_mean_anomaly": 94.2479,
        "meta_ephemeris_type": 0,
        "meta_classification_type": "U",
        "meta_norad_cat_id": 43633,
        "meta_element_set_no": 999,
        "meta_rev_at_epoch": 2636,
        "meta_bstar": 0,
        "meta_mean_motion_dot": -1e-07,
        "meta_mean_motion_ddot": 0,
        "tle_line1": "1 43633U 18074B   25336.39766854 -.00000010  00000+0  00000+0 0  9996",
        "tle_line2": "2 43633   0.0303 208.7780 0001081  80.6678  94.2479  1.00268601 26360"
      },
      "geometry": {
        "type": "Point",
        "coordinates": [
          -125.37130956854287,
          -0.011492306447055654
        ]
      }
    }
  ]
}